ONEWEB-0053             
1 45157U 20008AC  26184.84589109 -.00000445  00000+0 -13117-2 0  9996
2 45157  87.8817  32.9646 0001722  69.8555 290.2758 13.10373757310096
ONEWEB-0054             
1 45158U 20008AD  26184.80522596  .00000544  00000+0  15216-2 0  9990
2 45158  87.8827  32.9572 0001877  85.0168 275.1174 13.10372591310209
ONEWEB-0056             
1 45159U 20008AE  26185.00525969 -.00000187  00000+0 -57240-3 0  9990
2 45159  87.8828  32.9107 0002078  86.1064 274.0301 13.10374942310387
ONEWEB-0057             
1 45160U 20008AF  26185.02252533  .00000673  00000+0  18914-2 0  9990
2 45160  87.8824  32.9196 0001824  71.1953 288.9372 13.10373381310559
ONEWEB-0058             
1 45161U 20008AG  26185.00931695  .00000064  00000+0  14628-3 0  9995
2 45161  87.8815  32.9264 0001746  92.6296 267.5032 13.10377404310621
ONEWEB-0059             
1 45162U 20008AH  26185.00555346 -.00000187  00000+0 -57161-3 0  9998
2 45162  87.8820  32.9266 0001628  79.7959 280.3352 13.10373336310528
ONEWEB-0062             
1 45163U 20008AJ  26185.02904960  .00000708  00000+0  19923-2 0  9991
2 45163  87.8826  32.9105 0001898  95.5972 264.5372 13.10373834310391
ONEWEB-0065             
1 45164U 20008AK  26184.83389597 -.00000552  00000+0 -16171-2 0  9994
2 45164  87.8809  32.9568 0001921  76.8532 283.2809 13.10373672310064
ONEWEB-0066             
1 45424U 20020A   26185.23717493 -.00000335  00000+0 -98190-3 0  9993
2 45424  87.8875  17.6760 0001618  88.8319 271.2994 13.11411092304918
ONEWEB-0067             
1 45425U 20020B   26184.96976922  .00000128  00000+0  32501-3 0  9999
2 45425  87.8900  17.6541 0001821  82.3519 277.7816 13.11427106304931
ONEWEB-0080             
1 45426U 20020C   26184.81683619  .00000174  00000+0  45435-3 0  9993
2 45426  87.8891  17.7577 0001881  98.0091 262.1251 13.11418204304880
ONEWEB-0090             
1 45427U 20020D   26185.22714629  .00000312  00000+0  84473-3 0  9995
2 45427  87.8887  17.6803 0001869  90.7565 269.3777 13.11414977304906
ONEWEB-0061             
1 45428U 20020E   26184.95388026 -.00000472  00000+0 -13673-2 0  9995
2 45428  87.8886  17.7195 0001804  89.6692 270.4642 13.11416992304822
ONEWEB-0081             
1 45429U 20020F   26184.93537264 -.00000247  00000+0 -73157-3 0  9998
2 45429  87.8883  17.7328 0001709  84.3956 275.7367 13.11414122304934
ONEWEB-0069             
1 45430U 20020G   26185.24240882 -.00000305  00000+0 -89677-3 0  9991
2 45430  87.8883  17.6743 0001660  87.6614 272.4704 13.11417121304907
ONEWEB-0031             
1 45431U 20020H   26184.97268814 -.00000735  00000+0 -21100-2 0  9999
2 45431  87.8876  17.7321 0001417  98.5621 261.5668 13.11410232304850
ONEWEB-0027             
1 45432U 20020J   26184.96710081  .00000059  00000+0  11936-3 0  9991
2 45432  87.9135   2.5266 0002308  98.2275 261.9118 13.17653852308561
ONEWEB-0064             
1 45433U 20020K   26184.97098064  .00000182  00000+0  47817-3 0  9997
2 45433  87.8882  17.7248 0001941  91.9050 268.2301 13.11419760304888
ONEWEB-0018             
1 45434U 20020L   26185.23194342  .00000189  00000+0  49799-3 0  9992
2 45434  87.8879  17.6723 0001464  94.8720 265.2575 13.11414236304869
ONEWEB-0083             
1 45435U 20020M   26184.99317049  .00000402  00000+0  10984-2 0  9997
2 45435  87.8885  17.7145 0001842  91.3682 268.7657 13.11414771304879
ONEWEB-0095             
1 45436U 20020N   26184.98468776  .00000584  00000+0  16126-2 0  9996
2 45436  87.8887  17.7247 0002487  82.5460 277.5950 13.11416188304875
ONEWEB-0092             
1 45437U 20020P   26185.24401371 -.00003190  00000+0 -90443-2 0  9997
2 45437  87.8886  17.6645 0001833  83.5900 276.5436 13.11382171305020
ONEWEB-0085             
1 45438U 20020Q   26184.99289381  .00000490  00000+0  13463-2 0  9999
2 45438  87.8879  17.7203 0001854  88.8316 271.3024 13.11415682304878
ONEWEB-0096             
1 45439U 20020R   26184.99471888  .00000474  00000+0  13005-2 0  9999
2 45439  87.8884  17.7168 0001957  88.3777 271.7575 13.11414810304861
ONEWEB-0037             
1 45440U 20020S   26185.25044221 -.00000441  00000+0 -12719-2 0  9995
2 45440  87.8897  17.6382 0001910  87.0333 273.1014 13.11913422304932
ONEWEB-0042             
1 45441U 20020T   26184.98441926  .00000527  00000+0  14509-2 0  9990
2 45441  87.8887  17.7152 0001784  85.9637 274.1695 13.11416487304868
ONEWEB-0098             
1 45442U 20020U   26184.98030317  .00000539  00000+0  14849-2 0  9999
2 45442  87.8885  17.7250 0001840  91.2345 268.8993 13.11419452304849
ONEWEB-0055             
1 45443U 20020V   26184.95897443 -.00000253  00000+0 -74826-3 0  9995
2 45443  87.8883  17.7282 0001888  91.2448 268.8897 13.11417799304811
ONEWEB-0093             
1 45444U 20020W   26185.24673787 -.00000500  00000+0 -14589-2 0  9996
2 45444  87.8885  17.6652 0001610  81.5534 278.5776 13.10890577304918
ONEWEB-0029             
1 45445U 20020X   26184.96603272 -.00000045  00000+0 -16320-3 0  9997
2 45445  87.8879  17.7278 0001593  85.6435 274.4875 13.11417843304852
