OBJECT_NAME,OBJECT_ID,EPOCH,MEAN_MOTION,ECCENTRICITY,INCLINATION,RA_OF_ASC_NODE,ARG_OF_PERICENTER,MEAN_ANOMALY,EPHEMERIS_TYPE,CLASSIFICATION_TYPE,NORAD_CAT_ID,ELEMENT_SET_NO,REV_AT_EPOCH,BSTAR,MEAN_MOTION_DOT,MEAN_MOTION_DDOT
ONEWEB-0053,2020-008AC,2026-07-03T20:18:04.990176,13.10373757,.00017225,87.8817,32.9646,69.8555,290.2758,0,U,45157,999,31009,-.1311664E-2,-.445E-5,0
ONEWEB-0054,2020-008AD,2026-07-03T19:19:31.522944,13.10372591,.00018774,87.8827,32.9572,85.0168,275.1174,0,U,45158,999,31020,.15215959E-2,.544E-5,0
ONEWEB-0056,2020-008AE,2026-07-04T00:07:34.437216,13.10374942,.00020787,87.8828,32.9107,86.1064,274.0301,0,U,45159,999,31038,-.5723951E-3,-.187E-5,0
ONEWEB-0057,2020-008AF,2026-07-04T00:32:26.188512,13.10373381,.00018247,87.8824,32.9196,71.1953,288.9372,0,U,45160,999,31055,.1891361E-2,.673E-5,0
ONEWEB-0058,2020-008AG,2026-07-04T00:13:24.984480,13.10377404,.00017469,87.8815,32.9264,92.6296,267.5032,0,U,45161,999,31062,.14627721E-3,.64E-6,0
ONEWEB-0059,2020-008AH,2026-07-04T00:07:59.818944,13.10373336,.00016282,87.8820,32.9266,79.7959,280.3352,0,U,45162,999,31052,-.57160917E-3,-.187E-5,0
ONEWEB-0062,2020-008AJ,2026-07-04T00:41:49.885440,13.10373834,.00018982,87.8826,32.9105,95.5972,264.5372,0,U,45163,999,31039,.19922821E-2,.708E-5,0
ONEWEB-0065,2020-008AK,2026-07-03T20:00:48.611808,13.10373672,.00019217,87.8809,32.9568,76.8532,283.2809,0,U,45164,999,31006,-.16170961E-2,-.552E-5,0
ONEWEB-0066,2020-020A,2026-07-04T05:41:31.913952,13.11411092,.00016182,87.8875,17.6760,88.8319,271.2994,0,U,45424,999,30491,-.98190448E-3,-.335E-5,0
ONEWEB-0067,2020-020B,2026-07-03T23:16:28.060608,13.11427106,.00018219,87.8900,17.6541,82.3519,277.7816,0,U,45425,999,30493,.32501049E-3,.128E-5,0
ONEWEB-0080,2020-020C,2026-07-03T19:36:14.646816,13.11418204,.00018818,87.8891,17.7577,98.0091,262.1251,0,U,45426,999,30488,.45435267E-3,.174E-5,0
ONEWEB-0090,2020-020D,2026-07-04T05:27:05.439456,13.11414977,.00018698,87.8887,17.6803,90.7565,269.3777,0,U,45427,999,30490,.84472958E-3,.312E-5,0
ONEWEB-0061,2020-020E,2026-07-03T22:53:35.254464,13.11416992,.00018048,87.8886,17.7195,89.6692,270.4642,0,U,45428,999,30482,-.13673103E-2,-.472E-5,0
ONEWEB-0081,2020-020F,2026-07-03T22:26:56.196096,13.11414122,.00017098,87.8883,17.7328,84.3956,275.7367,0,U,45429,999,30493,-.73157281E-3,-.247E-5,0
ONEWEB-0069,2020-020G,2026-07-04T05:49:04.122048,13.11417121,.00016601,87.8883,17.6743,87.6614,272.4704,0,U,45430,999,30490,-.89677209E-3,-.305E-5,0
ONEWEB-0031,2020-020H,2026-07-03T23:20:40.255296,13.11410232,.00014178,87.8876,17.7321,98.5621,261.5668,0,U,45431,999,30485,-.21099543E-2,-.735E-5,0
ONEWEB-0027,2020-020J,2026-07-03T23:12:37.509984,13.17653852,.0002308,87.9135,2.5266,98.2275,261.9118,0,U,45432,999,30856,.11935823E-3,.59E-6,0
ONEWEB-0064,2020-020K,2026-07-03T23:18:12.727296,13.11419760,.00019413,87.8882,17.7248,91.9050,268.2301,0,U,45433,999,30488,.47816951E-3,.182E-5,0
ONEWEB-0018,2020-020L,2026-07-04T05:33:59.911488,13.11414236,.00014644,87.8879,17.6723,94.8720,265.2575,0,U,45434,999,30486,.49799492E-3,.189E-5,0
ONEWEB-0083,2020-020M,2026-07-03T23:50:09.930336,13.11414771,.00018429,87.8885,17.7145,91.3682,268.7657,0,U,45435,999,30487,.10983678E-2,.402E-5,0
ONEWEB-0095,2020-020N,2026-07-03T23:37:57.022464,13.11416188,.00024875,87.8887,17.7247,82.5460,277.5950,0,U,45436,999,30487,.16126226E-2,.584E-5,0
ONEWEB-0092,2020-020P,2026-07-04T05:51:22.784544,13.11382171,.00018336,87.8886,17.6645,83.5900,276.5436,0,U,45437,999,30502,-.9044331E-2,-.319E-4,0
ONEWEB-0085,2020-020Q,2026-07-03T23:49:46.025184,13.11415682,.00018541,87.8879,17.7203,88.8316,271.3024,0,U,45438,999,30487,.13463007E-2,.49E-5,0
ONEWEB-0096,2020-020R,2026-07-03T23:52:23.711232,13.11414810,.00019579,87.8884,17.7168,88.3777,271.7575,0,U,45439,999,30486,.13005273E-2,.474E-5,0
ONEWEB-0037,2020-020S,2026-07-04T06:00:38.206944,13.11913422,.00019104,87.8897,17.6382,87.0333,273.1014,0,U,45440,999,30493,-.127187E-2,-.441E-5,0
ONEWEB-0042,2020-020T,2026-07-03T23:37:33.824064,13.11416487,.00017842,87.8887,17.7152,85.9637,274.1695,0,U,45441,999,30486,.14508807E-2,.527E-5,0
ONEWEB-0098,2020-020U,2026-07-03T23:31:38.193888,13.11419452,.00018406,87.8885,17.7250,91.2345,268.8993,0,U,45442,999,30484,.14849213E-2,.539E-5,0
ONEWEB-0055,2020-020V,2026-07-03T23:00:55.390752,13.11417799,.0001888,87.8883,17.7282,91.2448,268.8897,0,U,45443,999,30481,-.74826123E-3,-.253E-5,0
ONEWEB-0093,2020-020W,2026-07-04T05:55:18.151968,13.10890577,.00016103,87.8885,17.6652,81.5534,278.5776,0,U,45444,999,30491,-.145893E-2,-.5E-5,0
ONEWEB-0029,2020-020X,2026-07-03T23:11:05.227008,13.11417843,.00015937,87.8879,17.7278,85.6435,274.4875,0,U,45445,999,30485,-.16319522E-3,-.45E-6,0
